{"type": "FeatureCollection", "features": [ {"type": "Feature", "properties": {"norad_id": 42741, "name": "EUTELSAT 172B", "group": "eutelsat", "lat": -0.015922533516459673, "lon": -9.689900946102796, "alt_km": 35786.490108151906, "timestamp": "2025-12-22T05:49:03.154196+00:00", "meta": {"OBJECT_NAME": "EUTELSAT 172B", "OBJECT_ID": "2017-029B", "EPOCH": "2025-12-21T19:09:06.970176", "MEAN_MOTION": 1.00271664, "ECCENTRICITY": 1.9e-05, "INCLINATION": 0.0286, "RA_OF_ASC_NODE": 118.0139, "ARG_OF_PERICENTER": 351.431, "MEAN_ANOMALY": 80.4526, "EPHEMERIS_TYPE": 0, "CLASSIFICATION_TYPE": "U", "NORAD_CAT_ID": 42741, "ELEMENT_SET_NO": 999, "REV_AT_EPOCH": 3195, "BSTAR": 0, "MEAN_MOTION_DOT": 1.7e-07, "MEAN_MOTION_DDOT": 0}, "tle": {"line1": "1 42741U 17029B   25355.79799734  .00000017  00000+0  00000+0 0  9998", "line2": "2 42741   0.0286 118.0139 0000190 351.4310  80.4526  1.00271664 31956"}}, "geometry": {"type": "Point", "coordinates": [-9.689900946102796, -0.015922533516459673]}}, {"type": "Feature", "properties": {"norad_id": 44334, "name": "EUTELSAT 7C", "group": "eutelsat", "lat": 0.007498242689803714, "lon": -174.75022703226023, "alt_km": 35782.62256500194, "timestamp": "2025-12-22T05:49:03.154208+00:00", "meta": {"OBJECT_NAME": "EUTELSAT 7C", "OBJECT_ID": "2019-034B", "EPOCH": "2025-12-21T18:22:03.973728", "MEAN_MOTION": 1.00268905, "ECCENTRICITY": 0.0003147, "INCLINATION": 0.0731, "RA_OF_ASC_NODE": 180.5746, "ARG_OF_PERICENTER": 76.0172, "MEAN_ANOMALY": 116.4878, "EPHEMERIS_TYPE": 0, "CLASSIFICATION_TYPE": "U", "NORAD_CAT_ID": 44334, "ELEMENT_SET_NO": 999, "REV_AT_EPOCH": 505, "BSTAR": 0, "MEAN_MOTION_DOT": 7e-07, "MEAN_MOTION_DDOT": 0}, "tle": {"line1": "1 44334U 19034B   25355.76532377  .00000070  00000+0  00000+0 0  9990", "line2": "2 44334   0.0731 180.5746 0003147  76.0172 116.4878  1.00268905  5056"}}, "geometry": {"type": "Point", "coordinates": [-174.75022703226023, 0.007498242689803714]}}, {"type": "Feature", "properties": {"norad_id": 44624, "name": "EUTELSAT 5 WEST B", "group": "eutelsat", "lat": -0.015202080475361325, "lon": 173.27472241128123, "alt_km": 35787.78232654304, "timestamp": "2025-12-22T05:49:03.154219+00:00", "meta": {"OBJECT_NAME": "EUTELSAT 5 WEST B", "OBJECT_ID": "2019-067A", "EPOCH": "2025-12-21T18:18:34.310304", "MEAN_MOTION": 1.0027136, "ECCENTRICITY": 0.0003012, "INCLINATION": 0.066, "RA_OF_ASC_NODE": 337.4911, "ARG_OF_PERICENTER": 292.925, "MEAN_ANOMALY": 89.8087, "EPHEMERIS_TYPE": 0, "CLASSIFICATION_TYPE": "U", "NORAD_CAT_ID": 44624, "ELEMENT_SET_NO": 999, "REV_AT_EPOCH": 2265, "BSTAR": 0, "MEAN_MOTION_DOT": -2e-07, "MEAN_MOTION_DDOT": 0}, "tle": {"line1": "1 44624U 19067A   25355.76289711 -.00000020  00000+0  00000+0 0  9995", "line2": "2 44624   0.0660 337.4911 0003012 292.9250  89.8087  1.00271360 22652"}}, "geometry": {"type": "Point", "coordinates": [173.27472241128123, -0.015202080475361325]}}, {"type": "Feature", "properties": {"norad_id": 45027, "name": "EUTELSAT KONNECT", "group": "eutelsat", "lat": 0.066141379400938, "lon": -174.50548666241195, "alt_km": 35786.57061651917, "timestamp": "2025-12-22T05:49:03.154231+00:00", "meta": {"OBJECT_NAME": "EUTELSAT KONNECT", "OBJECT_ID": "2020-005B", "EPOCH": "2025-12-21T18:22:03.973728", "MEAN_MOTION": 1.00271135, "ECCENTRICITY": 0.0001298, "INCLINATION": 0.0699, "RA_OF_ASC_NODE": 94.7667, "ARG_OF_PERICENTER": 184.4373, "MEAN_ANOMALY": 94.097, "EPHEMERIS_TYPE": 0, "CLASSIFICATION_TYPE": "U", "NORAD_CAT_ID": 45027, "ELEMENT_SET_NO": 999, "REV_AT_EPOCH": 2255, "BSTAR": 0, "MEAN_MOTION_DOT": 7.2e-07, "MEAN_MOTION_DDOT": 0}, "tle": {"line1": "1 45027U 20005B   25355.76532377  .00000072  00000+0  00000+0 0  9992", "line2": "2 45027   0.0699  94.7667 0001298 184.4373  94.0970  1.00271135 22556"}}, "geometry": {"type": "Point", "coordinates": [-174.50548666241195, 0.066141379400938]}}, {"type": "Feature", "properties": {"norad_id": 49056, "name": "EUTELSAT QUANTUM", "group": "eutelsat", "lat": -0.014244466649626914, "lon": -134.01576244933628, "alt_km": 35777.45869933004, "timestamp": "2025-12-22T05:49:03.154242+00:00", "meta": {"OBJECT_NAME": "EUTELSAT QUANTUM", "OBJECT_ID": "2021-069B", "EPOCH": "2025-12-21T09:59:47.771232", "MEAN_MOTION": 1.00272395, "ECCENTRICITY": 0.00033477, "INCLINATION": 0.0212, "RA_OF_ASC_NODE": 40.4204, "ARG_OF_PERICENTER": 239.54, "MEAN_ANOMALY": 7.9319, "EPHEMERIS_TYPE": 0, "CLASSIFICATION_TYPE": "U", "NORAD_CAT_ID": 49056, "ELEMENT_SET_NO": 999, "REV_AT_EPOCH": 1614, "BSTAR": 0, "MEAN_MOTION_DOT": 1.48e-06, "MEAN_MOTION_DDOT": 0}, "tle": {"line1": "1 49056U 21069B   25355.41652513  .00000148  00000+0  00000+0 0  9990", "line2": "2 49056   0.0212  40.4204 0003347 239.5400   7.9319  1.00272395 16145"}}, "geometry": {"type": "Point", "coordinates": [-134.01576244933628, -0.014244466649626914]}}, {"type": "Feature", "properties": {"norad_id": 53765, "name": "EUTELSAT KONNECT VHTS", "group": "eutelsat", "lat": 0.05893818833255129, "lon": -178.97921020986885, "alt_km": 35779.54208671016, "timestamp": "2025-12-22T05:49:03.154254+00:00", "meta": {"OBJECT_NAME": "EUTELSAT KONNECT VHTS", "OBJECT_ID": "2022-110A", "EPOCH": "2025-12-21T13:12:40.176000", "MEAN_MOTION": 1.00270894, "ECCENTRICITY": 0.0002618, "INCLINATION": 0.0618, "RA_OF_ASC_NODE": 99.3714, "ARG_OF_PERICENTER": 133.7511, "MEAN_ANOMALY": 58.1537, "EPHEMERIS_TYPE": 0, "CLASSIFICATION_TYPE": "U", "NORAD_CAT_ID": 53765, "ELEMENT_SET_NO": 999, "REV_AT_EPOCH": 504, "BSTAR": 0, "MEAN_MOTION_DOT": 4e-07, "MEAN_MOTION_DDOT": 0}, "tle": {"line1": "1 53765U 22110A   25355.55046500  .00000040  00000+0  00000+0 0  9999", "line2": "2 53765   0.0618  99.3714 0002618 133.7511  58.1537  1.00270894  5043"}}, "geometry": {"type": "Point", "coordinates": [-178.97921020986885, 0.05893818833255129]}}, {"type": "Feature", "properties": {"norad_id": 54048, "name": "EUTELSAT HOTBIRD 13F", "group": "eutelsat", "lat": -0.0511220671566378, "lon": -168.69983475051825, "alt_km": 35795.5526438299, "timestamp": "2025-12-22T05:49:03.154282+00:00", "meta": {"OBJECT_NAME": "EUTELSAT HOTBIRD 13F", "OBJECT_ID": "2022-134A", "EPOCH": "2025-12-21T18:23:41.318880", "MEAN_MOTION": 1.00271806, "ECCENTRICITY": 0.0002285, "INCLINATION": 0.0526, "RA_OF_ASC_NODE": 292.212, "ARG_OF_PERICENTER": 72.0612, "MEAN_ANOMALY": 15.2275, "EPHEMERIS_TYPE": 0, "CLASSIFICATION_TYPE": "U", "NORAD_CAT_ID": 54048, "ELEMENT_SET_NO": 999, "REV_AT_EPOCH": 1159, "BSTAR": 0, "MEAN_MOTION_DOT": 1.09e-06, "MEAN_MOTION_DDOT": 0}, "tle": {"line1": "1 54048U 22134A   25355.76645045  .00000109  00000+0  00000+0 0  9998", "line2": "2 54048   0.0526 292.2120 0002285  72.0612  15.2275  1.00271806 11592"}}, "geometry": {"type": "Point", "coordinates": [-168.69983475051825, -0.0511220671566378]}}, {"type": "Feature", "properties": {"norad_id": 54225, "name": "EUTELSAT HOTBIRD 13G", "group": "eutelsat", "lat": -0.032119800963708374, "lon": -168.6931063656597, "alt_km": 35778.56792436465, "timestamp": "2025-12-22T05:49:03.154297+00:00", "meta": {"OBJECT_NAME": "EUTELSAT HOTBIRD 13G", "OBJECT_ID": "2022-146A", "EPOCH": "2025-12-21T16:40:57.730368", "MEAN_MOTION": 1.00271803, "ECCENTRICITY": 0.0001861, "INCLINATION": 0.0528, "RA_OF_ASC_NODE": 225.6039, "ARG_OF_PERICENTER": 308.6621, "MEAN_ANOMALY": 179.4799, "EPHEMERIS_TYPE": 0, "CLASSIFICATION_TYPE": "U", "NORAD_CAT_ID": 54225, "ELEMENT_SET_NO": 999, "REV_AT_EPOCH": 568, "BSTAR": 0, "MEAN_MOTION_DOT": 1.1e-06, "MEAN_MOTION_DDOT": 0}, "tle": {"line1": "1 54225U 22146A   25355.69511262  .00000110  00000+0  00000+0 0  9995", "line2": "2 54225   0.0528 225.6039 0001861 308.6621 179.4799  1.00271803  5681"}}, "geometry": {"type": "Point", "coordinates": [-168.6931063656597, -0.032119800963708374]}}, {"type": "Feature", "properties": {"norad_id": 54259, "name": "EUTELSAT 10B", "group": "eutelsat", "lat": 0.053219644641837045, "lon": -171.65781156420263, "alt_km": 35784.460189259305, "timestamp": "2025-12-22T05:49:03.154309+00:00", "meta": {"OBJECT_NAME": "EUTELSAT 10B", "OBJECT_ID": "2022-157A", "EPOCH": "2025-12-21T18:22:48.901728", "MEAN_MOTION": 1.00275334, "ECCENTRICITY": 9.11e-05, "INCLINATION": 0.0592, "RA_OF_ASC_NODE": 97.7142, "ARG_OF_PERICENTER": 9.4258, "MEAN_ANOMALY": 269.1639, "EPHEMERIS_TYPE": 0, "CLASSIFICATION_TYPE": "U", "NORAD_CAT_ID": 54259, "ELEMENT_SET_NO": 999, "REV_AT_EPOCH": 1124, "BSTAR": 0, "MEAN_MOTION_DOT": 9.1e-07, "MEAN_MOTION_DDOT": 0}, "tle": {"line1": "1 54259U 22157A   25355.76584377  .00000091  00000+0  00000+0 0  9997", "line2": "2 54259   0.0592  97.7142 0000911   9.4258 269.1639  1.00275334 11241"}}, "geometry": {"type": "Point", "coordinates": [-171.65781156420263, 0.053219644641837045]}}, {"type": "Feature", "properties": {"norad_id": 59346, "name": "EUTELSAT 36D", "group": "eutelsat", "lat": -0.011221429640175898, "lon": -145.8436217023024, "alt_km": 35787.53854377192, "timestamp": "2025-12-22T05:49:03.154320+00:00", "meta": {"OBJECT_NAME": "EUTELSAT 36D", "OBJECT_ID": "2024-059A", "EPOCH": "2025-12-21T11:39:26.603712", "MEAN_MOTION": 1.00272156, "ECCENTRICITY": 4.384e-05, "INCLINATION": 0.0244, "RA_OF_ASC_NODE": 29.7996, "ARG_OF_PERICENTER": 338.8651, "MEAN_ANOMALY": 292.3516, "EPHEMERIS_TYPE": 0, "CLASSIFICATION_TYPE": "U", "NORAD_CAT_ID": 59346, "ELEMENT_SET_NO": 999, "REV_AT_EPOCH": 636, "BSTAR": 0, "MEAN_MOTION_DOT": 0, "MEAN_MOTION_DDOT": 0}, "tle": {"line1": "1 59346U 24059A   25355.48572458  .00000000  00000+0  00000+0 0  9998", "line2": "2 59346   0.0244  29.7996 0000438 338.8651 292.3516  1.00272156  6367"}}, "geometry": {"type": "Point", "coordinates": [-145.8436217023024, -0.011221429640175898]}}]}